FENGYUN 3C              
1 39260U 13052A   23140.89769155  .00000111  00000+0  76841-4 0  9993
2 39260  98.4294 156.4770 0011610  27.9887 332.1910 14.16036329499600
CASSIOPE                
1 39265U 13055A   23140.82985303  .00023196  00000+0  56372-3 0  9993
2 39265  80.9605 266.7549 0573317  30.6132 332.7225 14.51065153501017
ZACUBE-1 (TSHEPISOSAT)  
1 39417U 13066B   23140.87324926  .00004825  00000+0  55909-3 0  9990
2 39417  97.6839 103.5038 0055662  19.2159 341.1138 14.84796015513149
CINEMA-3 (KHUSAT-2)     
1 39426U 13066L   23140.75649365  .00001331  00000+0  20686-3 0  9997
2 39426  97.8280  71.8184 0099705 234.4246 124.7638 14.71447655508844
TRITON-1                
1 39427U 13066M   23140.75650181  .00002684  00000+0  40954-3 0  9998
2 39427  97.8356  67.6579 0106627 265.5942  93.3077 14.70900226508328
DELFI-N3XT              
1 39428U 13066N   23140.79017373  .00005339  00000+0  77389-3 0  9995
2 39428  97.8339  66.6021 0109312 277.6496  81.2309 14.72434908508104
GOMX-1                  
1 39430U 13066Q   23140.94440206  .00003039  00000+0  53102-3 0  9992
2 39430  97.7830  33.6707 0147250  59.8637 301.7065 14.61703930505374
BRITE-PL1 (LEM)         
1 39431U 13066R   23140.75870402  .00000631  00000+0  14323-3 0  9994
2 39431  97.6794 329.0818 0198514 262.7698  95.0894 14.47918081501164
ICUBE-1                 
1 39432U 13066S   23140.85511750  .00006176  00000+0  56141-3 0  9998
2 39432  97.4832 132.9772 0028169 210.7660 149.1911 14.95272832515050
HUMSAT-D                
1 39433U 13066T   23140.52226584  .00008119  00000+0  67120-3 0  9999
2 39433  97.4501 140.6245 0027168 182.1613 177.9498 14.98889808515614
VELOX-PII               
1 39438U 13066Y   23140.81772964  .00003642  00000+0  45970-3 0  9999
2 39438  97.7406  95.1497 0068631  77.7260 283.1627 14.80854670510895
FIRST-MOVE              
1 39439U 13066Z   23140.47814558  .00011439  00000+0  11755-2 0  9994
2 39439  97.6792 106.8392 0057213  11.2977 348.9510 14.89286180512100
CUBEBUG-2 (LO-74)       
1 39440U 13066AA  23140.84276401  .00003437  00000+0  44676-3 0  9994
2 39440  97.7715  90.4951 0077162 115.5750 245.3463 14.79235807510114
NEE-02 KRYSAOR          
1 39441U 13066AB  23140.78273562  .00002038  00000+0  27938-3 0  9991
2 39441  97.7822  87.3098 0079523 131.9847 228.8174 14.77319935509805
FUNCUBE-1 (AO-73)       
1 39444U 13066AE  23140.86697263  .00006419  00000+0  71341-3 0  9995
2 39444  97.6703 106.0207 0053457   5.1130 355.0620 14.86459719511583
HINCUBE                 
1 39445U 13066AF  23140.83334822  .00006511  00000+0  72812-3 0  9999
2 39445  97.6716 105.7593 0053649   7.7919 352.4118 14.86195703511514
UWE-3                   
1 39446U 13066AG  23140.81547554  .00004755  00000+0  58427-3 0  9990
2 39446  97.7336  96.6494 0067440  69.1412 291.7006 14.81872750510379
AIST-1 (RS-41)          
1 39492U 13078C   23140.82986003  .00001985  00000+0  20461-3 0  9990
2 39492  82.4174 273.5717 0020432  69.2990 291.0415 14.89606375507646
SPROUT                  
1 39770U 14029E   23140.84204535  .00026311  00000+0  20449-2 0  9996
2 39770  97.9785 267.2957 0006528  38.9147 321.2545 15.01258560488054
UNISAT-6                
1 40012U 14033C   23140.81970247  .00003444  00000+0  48676-3 0  9994
2 40012  97.6713 316.2264 0056661 144.0723 216.4318 14.76655660479732
BUGSAT-1 (TITA)         
1 40014U 14033E   23140.86469234  .00005717  00000+0  46911-3 0  9995
2 40014  98.1385 158.6050 0028906   6.2959 353.8620 14.99325338486626
DUCHIFAT-1              
1 40021U 14033M   23140.83035195  .00009847  00000+0  84657-3 0  9992
2 40021  98.0555 103.9185 0011082  14.5480 345.6058 14.97583931485099
NANOSATC-BR1            
1 40024U 14033Q   23140.82613261  .00008339  00000+0  75470-3 0  9998
2 40024  98.0275  95.2752 0011497  24.1901 335.9856 14.95625260484322
QB50P1                  
1 40025U 14033R   23140.80465495  .00006544  00000+0  62323-3 0  9990
2 40025  97.9964  87.0828 0012280  33.6537 326.5460 14.93686002484056
DTUSAT-2                
1 40030U 14033W   23140.80264857  .00004872  00000+0  47541-3 0  9992
2 40030  97.9673  80.9975 0011793  30.4369 329.7532 14.92855602483912
QB50P2                  
1 40032U 14033Y   23140.77849596  .00005887  00000+0  57320-3 0  9992
2 40032  97.9673  80.9905 0011692  31.9873 328.2053 14.92857180483882
POLYITAN-1              
1 40042U 14033AJ  23140.82148769  .00007402  00000+0  69048-3 0  9998
2 40042  98.0083  88.9094 0013923  24.6858 335.5025 14.94445308483953
TIGRISAT                
1 40043U 14033AK  23140.46660005  .00002732  00000+0  38913-3 0  9999
2 40043  97.6637 316.9062 0058801 142.6255 217.9068 14.76400604479325
AISAT                   
1 40054U 14034B   23140.86025549  .00005935  00000+0  73492-3 0  9993
2 40054  98.3675 331.7695 0010365 318.2219  41.8201 14.83086245479410
CANX-4                  
1 40055U 14034C   23140.71007951  .00001370  00000+0  20455-3 0  9995
2 40055  98.3889 314.6192 0013986  10.4215 349.7280 14.76461840478460
CANX-5                  
1 40056U 14034D   23140.71695074  .00001368  00000+0  20434-3 0  9999
2 40056  98.3892 314.6122 0013983  10.6367 349.5135 14.76464674469279
VELOX-I                 
1 40057U 14034E   23140.78672845  .00004295  00000+0  55167-3 0  9991
2 40057  98.3723 332.5906 0009369 337.3289  22.7507 14.81729651479377
METEOR-M 2              
1 40069U 14037A   23140.87586539  .00000083  00000+0  57594-4 0  9999
2 40069  98.4239 148.1200 0006927  67.1346 293.0563 14.20777812459772
DX1                     
1 40071U 14037C   23140.93158563  .00001599  00000+0  20438-3 0  9990
2 40071  98.3637  30.7155 0007239 320.8491  39.2197 14.82907265479240
UKUBE-1                 
1 40074U 14037F   23140.68435975  .00005566  00000+0  61152-3 0  9996
2 40074  98.3478  43.7312 0002390 285.0925  75.0025 14.88087411480161
FIREBIRD 3              
1 40377U 15003B   23140.79459400  .00164580  00000+0  15047-2 0  9990
2 40377  99.0765  91.7616 0040073 303.9371  55.8077 15.66251438460349
FIREBIRD 4              
1 40378U 15003C   23140.79845052  .00159123  00000+0  14558-2 0  9996
2 40378  99.0787  92.0875 0040261 302.8840  56.8542 15.66240238460358
GRIFEX                  
1 40379U 15003D   23140.75301250  .00053590  00000+0  12192-2 0  9993
2 40379  99.0790  70.9383 0084097   7.4373 352.8093 15.39084970459151
CP10 (EXOCUBE)          
1 40380U 15003E   23140.75715760  .00036009  00000+0  10241-2 0  9999
2 40380  99.0853  61.1454 0100656  39.5827 321.2702 15.31061417458524
DEORBITSAIL             
1 40719U 15032E   23140.93107577  .00005855  00000+0  75516-3 0  9990
2 40719  97.7378  12.6805 0014692 353.8295   6.2735 14.81306099423781
XW-2C                   
1 40906U 15049H   23140.88034299  .00014723  00000+0  57700-3 0  9999
2 40906  97.4938 147.9399 0009777 253.9348 106.0814 15.25834928424239
XW-2D                   
1 40907U 15049J   23140.86724036  .00017426  00000+0  64605-3 0  9998
2 40907  97.4917 148.3875 0008921 244.7970 115.2344 15.27647895424316
LILACSAT-2              
1 40908U 15049K   23140.83001532  .00007121  00000+0  33871-3 0  9997
2 40908  97.5246 143.9707 0012140 287.3349  72.6558 15.19428686423643
XW-2E                   
1 40909U 15049L   23140.85479801  .00036593  00000+0  10115-2 0  9998
2 40909  97.4532 154.3533 0008261 202.2435 157.8452 15.36912571424948
XW-2F                   
1 40910U 15049M   23140.84098394  .00037064  00000+0  10451-2 0  9990
2 40910  97.4625 153.5698 0008933 206.6165 153.4621 15.36283408424816
XW-2B                   
1 40911U 15049N   23140.85932787  .00017462  00000+0  65158-3 0  9990
2 40911  97.4896 148.8335 0008895 246.9144 113.1157 15.27433539424193
KAITUO 1B               
1 40912U 15049P   23140.83765709  .00047151  00000+0  11027-2 0  9990
2 40912  97.4179 158.1187 0010333 166.4596 193.6930 15.41952959425397
LAPAN-A2                
1 40931U 15052B   23139.73487880  .00001122  00000+0  65817-4 0  9999
2 40931   6.0004 289.6121 0013609 252.8471 107.0166 14.77210651413021
LQSAT                   
1 40958U 15057A   23140.88763267  .00000763  00000+0  12351-3 0  9991
2 40958  97.7039 176.1996 0016705 315.8709  44.1166 14.73879762409687
ATHENOXAT 1             
1 41168U 15077C   23140.92693378  .00143308  00000+0  21812-2 0  9991
2 41168  14.9878  74.5443 0005181 336.8372  23.1720 15.52572778412060
GALASSIA                
1 41170U 15077E   23140.92748751  .00055476  00000+0  14266-2 0  9993
2 41170  14.9876  80.4834 0007165   1.7788 358.2561 15.37358487411857
VELOX-II                
1 41171U 15077F   23140.37811651  .00022542  00000+0  80646-3 0  9997
2 41171  14.9888 182.5413 0006674 156.4951 203.5677 15.26390423410945
CHUBUSAT-2              
1 41338U 16012B   23140.86302479  .00004527  00000+0  31481-3 0  9995
2 41338  31.0044  32.4718 0012601 266.8003  93.1192 15.03808987398265
CHUBUSAT-3              
1 41339U 16012C   23140.92166885  .00004048  00000+0  28182-3 0  9994
2 41339  31.0108  29.1614 0012510 274.4999  85.4209 15.03682490398175
HORYU-4                 
1 41340U 16012D   23140.91480509  .00008312  00000+0  52689-3 0  9994
2 41340  31.0054 358.6960 0012025 329.2239  30.7693 15.07553981398602
OUFTI-1                 
1 41458U 16025C   23140.52768140  .00045525  00000+0  12612-2 0  9993
2 41458  98.1849 341.4350 0103724 187.4180 172.5531 15.31497527388815
E-ST@R-II               
1 41459U 16025D   23140.80016783  .00041734  00000+0  12537-2 0  9998
2 41459  98.1880 339.3576 0110350 193.9050 165.9143 15.28413549388710
AAUSAT 4                
1 41460U 16025E   23140.57497705  .00120778  00000+0  18602-2 0  9996
2 41460  98.1632 350.7633 0066995 152.2887 208.1959 15.51176864389481
AIST-2D (RS-48)         
1 41465U 16026B   23140.90641932  .00027675  00000+0  38985-3 0  9991
2 41465  97.0008  12.7130 0006064 353.4347   6.6829 15.56581418395726
